NORAD_CAT_ID,OBJECT_NAME,OBJECT_TYPE,EPOCH,MEAN_MOTION,ECCENTRICITY,INCLINATION,RA_OF_ASC_NODE,ARG_OF_PERICENTER,MEAN_ANOMALY,BSTAR,MEAN_MOTION_DOT,MEAN_MOTION_DDOT,TLE_LINE0,TLE_LINE1,TLE_LINE2,SEMIMAJOR_AXIS,PERIOD,APOGEE,PERIGEE,DECAYED
53626.0,STARLINK-4554,PAYLOAD,2024-04-07 19:50:58,15.08843541,0.0001553,53.2182,140.0579,87.0272,273.0898,2.7678e-05,1.53e-06,0.0,0 STARLINK-4554,1 53626U 22104AQ  24098.82706850  .00000153  00000-0  27678-4 0  9993,2 53626  53.2182 140.0579 0001553  87.0272 273.0898 15.08843541 89958,6917.87,95.437,540.809,538.66,0.0
53626.0,STARLINK-4554,PAYLOAD,2024-04-08 11:44:50,15.08842831,0.0001638,53.2179,137.0843,88.8769,271.2411,0.0001393,1.93e-05,0.0,0 STARLINK-4554,1 53626U 22104AQ  24099.48946789  .00001930  00000-0  13930-3 0  9992,2 53626  53.2179 137.0843 0001638  88.8769 271.2411 15.08842831 90053,6917.872,95.437,540.87,538.604,0.0
53626.0,STARLINK-4554,PAYLOAD,2024-04-08 19:41:45,15.08846535,0.0001634,53.2178,135.5972,88.3318,271.7861,0.00014597,2.036e-05,0.0,0 STARLINK-4554,1 53626U 22104AQ  24099.82066487  .00002036  00000-0  14597-3 0  9996,2 53626  53.2178 135.5972 0001634  88.3318 271.7861 15.08846535 90104,6917.86,95.437,540.856,538.595,0.0
53626.0,STARLINK-4554,PAYLOAD,2024-04-09 02:03:18,15.08842951,0.0001621,53.2171,134.4081,89.023,271.0948,0.00018233,2.615e-05,0.0,0 STARLINK-4554,1 53626U 22104AQ  24100.08562657  .00002615  00000-0  18233-3 0  9991,2 53626  53.2171 134.4081 0001621  89.0230 271.0948 15.08842951 89456,6917.871,95.437,540.858,538.615,0.0
53626.0,STARLINK-4554,PAYLOAD,2024-04-09 08:24:51,15.08833427,0.0001574,53.2162,133.2191,93.9333,266.1839,0.00022331,3.267e-05,0.0,0 STARLINK-4554,1 53626U 22104AQ  24100.35059366  .00003267  00000-0  22331-3 0  9997,2 53626  53.2162 133.2191 0001574  93.9333 266.1839 15.08833427 89496,6917.9,95.438,540.854,538.677,0.0
53626.0,STARLINK-4554,PAYLOAD,2024-04-09 19:32:32,15.08846141,0.000139,53.2159,131.1373,93.4121,266.703,0.00012104,1.639e-05,0.0,0 STARLINK-4554,1 53626U 22104AQ  24100.81426545  .00001639  00000-0  12104-3 0  9993,2 53626  53.2159 131.1373 0001390  93.4121 266.7030 15.08846141 89561,6917.862,95.437,540.688,538.765,0.0
53626.0,STARLINK-4554,PAYLOAD,2024-04-10 08:15:38,15.08837544,0.0001541,53.2161,128.7562,93.6186,266.4982,2.4728e-05,1.06e-06,0.0,0 STARLINK-4554,1 53626U 22104AQ  24101.34419271  .00000106  00000-0  24728-4 0  9994,2 53626  53.2161 128.7562 0001541  93.6186 266.4982 15.08837544 89646,6917.888,95.438,540.819,538.687,0.0
53626.0,STARLINK-4554,PAYLOAD,2024-04-10 19:23:19,15.08842578,0.0001496,53.2173,126.6753,95.5229,264.5933,3.3008e-05,2.37e-06,0.0,0 STARLINK-4554,1 53626U 22104AQ  24101.80786853  .00000237  00000-0  33008-4 0  9994,2 53626  53.2173 126.6753 0001496  95.5229 264.5933 15.08842578 90400,6917.873,95.437,540.772,538.703,0.0
53626.0,STARLINK-4554,PAYLOAD,2024-04-11 08:06:25,15.08838434,0.0001488,53.2176,124.2964,95.1928,264.9234,2.8037e-05,1.58e-06,0.0,0 STARLINK-4554,1 53626U 22104AQ  24102.33779132  .00000158  00000-0  28037-4 0  9993,2 53626  53.2176 124.2964 0001488  95.1928 264.9234 15.08838434 90486,6917.885,95.438,540.78,538.721,0.0
53626.0,STARLINK-4554,PAYLOAD,2024-04-12 04:46:25,15.08838822,0.0001537,53.2177,120.4307,93.9598,266.157,0.00010221,1.339e-05,0.0,0 STARLINK-4554,1 53626U 22104AQ  24103.19891027  .00001339  00000-0  10221-3 0  9993,2 53626  53.2177 120.4307 0001537  93.9598 266.1570 15.08838822 89925,6917.884,95.438,540.812,538.686,0.0
53626.0,STARLINK-4554,PAYLOAD,2024-04-12 11:07:58,15.08839447,0.0001507,53.2177,119.242,91.8541,268.2624,8.1001e-05,1.001e-05,0.0,0 STARLINK-4554,1 53626U 22104AQ  24103.46387131  .00001001  00000-0  81001-4 0  9990,2 53626  53.2177 119.2420 0001507  91.8541 268.2624 15.08839447 90658,6917.882,95.438,540.79,538.705,0.0
53626.0,STARLINK-4554,PAYLOAD,2024-04-13 07:47:59,15.08839599,0.0001444,53.2172,115.3766,102.5452,257.5702,7.403e-05,8.9e-06,0.0,0 STARLINK-4554,1 53626U 22104AQ  24104.32499175  .00000890  00000-0  74030-4 0  9997,2 53626  53.2172 115.3766 0001444 102.5452 257.5702 15.08839599 90098,6917.882,95.438,540.746,538.748,0.0
53626.0,STARLINK-4554,PAYLOAD,2024-04-14 09:14:09,15.08839437,0.0001408,53.2171,110.6185,97.7172,262.398,5.6671e-05,6.14e-06,0.0,0 STARLINK-4554,1 53626U 22104AQ  24105.38483363  .00000614  00000-0  56671-4 0  9991,2 53626  53.2171 110.6185 0001408  97.7172 262.3980 15.08839437 90255,6917.882,95.438,540.721,538.773,0.0
53626.0,STARLINK-4554,PAYLOAD,2024-04-15 04:18:48,15.08822778,8.63e-05,53.2171,107.0436,47.1932,312.9132,-6.3944e-05,-1.305e-05,0.0,0 STARLINK-4554,1 53626U 22104AQ  24106.17972931 -.00001305  00000-0 -63944-4 0  9994,2 53626  53.2171 107.0436 0000863  47.1932 312.9132 15.08822778 90375,6917.933,95.439,540.395,539.201,0.0
53626.0,STARLINK-4554,PAYLOAD,2024-04-15 07:29:35,15.08811497,0.0001514,53.217,106.4564,103.4058,256.7103,-0.00016421,-2.898e-05,0.0,0 STARLINK-4554,1 53626U 22104AQ  24106.31222022 -.00002898  00000-0 -16421-3 0  9994,2 53626  53.2170 106.4564 0001514 103.4058 256.7103 15.08811497 90399,6917.968,95.439,540.88,538.785,0.0
53626.0,STARLINK-4554,PAYLOAD,2024-04-16 04:09:35,15.08844371,0.0001738,53.2174,102.5893,94.5442,265.5749,0.00015615,2.198e-05,0.0,0 STARLINK-4554,1 53626U 22104AQ  24107.17332367  .00002198  00000-0  15615-3 0  9998,2 53626  53.2174 102.5893 0001738  94.5442 265.5749 15.08844371 90526,6917.867,95.437,540.934,538.53,0.0
53626.0,STARLINK-4554,PAYLOAD,2024-04-16 08:55:44,15.08848313,0.0001647,53.2177,101.6971,96.253,263.865,0.00018943,2.729e-05,0.0,0 STARLINK-4554,1 53626U 22104AQ  24107.37204045  .00002729  00000-0  18943-3 0  9998,2 53626  53.2177 101.6971 0001647  96.2530 263.8650 15.08848313 91244,6917.855,95.437,540.859,538.581,0.0
53626.0,STARLINK-4554,PAYLOAD,2024-04-16 16:52:39,15.08858573,0.0001652,53.2174,100.2112,94.7683,265.3497,0.00026358,3.911e-05,0.0,0 STARLINK-4554,1 53626U 22104AQ  24107.70323233  .00003911  00000-0  26358-3 0  9999,2 53626  53.2174 100.2112 0001652  94.7683 265.3497 15.08858573 90605,6917.824,95.436,540.831,538.546,0.0
53626.0,STARLINK-4554,PAYLOAD,2024-04-17 05:35:45,15.08838567,0.0001803,53.2169,97.8338,90.6115,269.5084,0.00046467,7.115e-05,0.0,0 STARLINK-4554,1 53626U 22104AQ  24108.23317074  .00007115  00000-0  46467-3 0  9997,2 53626  53.2169  97.8338 0001803  90.6115 269.5084 15.08838567 90680,6917.885,95.438,540.997,538.502,0.0
53626.0,STARLINK-4554,PAYLOAD,2024-04-17 08:46:32,15.08843368,0.0002,53.217,97.2371,89.2702,270.8519,0.00048766,7.482e-05,0.0,0 STARLINK-4554,1 53626U 22104AQ  24108.36564866  .00007482  00000-0  48766-3 0  9995,2 53626  53.2170  97.2371 0002000  89.2702 270.8519 15.08843368 91391,6917.87,95.437,541.119,538.352,0.0
53626.0,STARLINK-4554,PAYLOAD,2024-04-18 08:37:18,15.0884214,0.0001851,53.2177,92.7746,109.6915,250.4277,-0.00010677,-1.987e-05,0.0,0 STARLINK-4554,1 53626U 22104AQ  24109.35924545 -.00001987  00000-0 -10677-3 0  9995,2 53626  53.2177  92.7746 0001851 109.6915 250.4277 15.08842140 90852,6917.874,95.437,541.019,538.458,0.0
53626.0,STARLINK-4554,PAYLOAD,2024-04-19 08:28:05,15.0884906,0.0001412,53.2165,88.3147,97.3966,262.7187,0.00014254,1.982e-05,0.0,0 STARLINK-4554,1 53626U 22104AQ  24110.35284008  .00001982  00000-0  14254-3 0  9998,2 53626  53.2165  88.3147 0001412  97.3966 262.7187 15.08849060 91694,6917.853,95.437,540.694,538.741,0.0
53626.0,STARLINK-4554,PAYLOAD,2024-04-19 22:46:33,15.08848007,0.0001402,53.217,85.6377,100.5496,259.5654,0.00028106,4.189e-05,0.0,0 STARLINK-4554,1 53626U 22104AQ  24110.94899816  .00004189  00000-0  28106-3 0  9995,2 53626  53.2170  85.6377 0001402 100.5496 259.5654 15.08848007 91782,6917.856,95.437,540.691,538.751,0.0
53626.0,STARLINK-4554,PAYLOAD,2024-04-20 05:08:05,15.08850755,0.0001455,53.2173,84.4478,103.4398,256.6756,0.00029331,4.384e-05,0.0,0 STARLINK-4554,1 53626U 22104AQ  24111.21395613  .00004384  00000-0  29331-3 0  9990,2 53626  53.2173  84.4478 0001455 103.4398 256.6756 15.08850755 91824,6917.848,95.437,540.719,538.706,0.0
53626.0,STARLINK-4554,PAYLOAD,2024-04-21 03:23:31,15.08808496,0.0001563,53.2175,80.284,106.5086,253.6078,-0.00062349,-0.00010189,0.0,0 STARLINK-4554,1 53626U 22104AQ  24112.14133238 -.00010189  00000-0 -62349-3 0  9994,2 53626  53.2175  80.2840 0001563 106.5086 253.6078 15.08808496 91279,6917.977,95.44,540.923,538.76,0.0
53626.0,STARLINK-4554,PAYLOAD,2024-04-21 04:58:54,15.08807404,0.0001458,53.2174,79.9868,100.2924,259.8233,-0.00061176,-0.00010002,0.0,0 STARLINK-4554,1 53626U 22104AQ  24112.20757410 -.00010002  00000-0 -61176-3 0  9996,2 53626  53.2174  79.9868 0001458 100.2924 259.8233 15.08807404 91974,6917.98,95.44,540.854,538.836,0.0
53626.0,STARLINK-4554,PAYLOAD,2024-04-21 22:28:09,15.08827266,0.0001381,53.2177,76.7166,83.4187,276.6962,6.7645e-06,-1.8e-06,0.0,0 STARLINK-4554,1 53626U 22104AQ  24112.93621598 -.00000180  00000-0  67645-5 0  9997,2 53626  53.2177  76.7166 0001381  83.4187 276.6962 15.08827266 92088,6917.919,95.438,540.74,538.829,0.0
53626.0,STARLINK-4554,PAYLOAD,2024-04-22 04:49:41,15.08852238,0.0001516,53.2176,75.5278,85.6643,274.4522,0.0005484,8.453e-05,0.0,0 STARLINK-4554,1 53626U 22104AQ  24113.20116985  .00008453  00000-0  54840-3 0  9998,2 53626  53.2176  75.5278 0001516  85.6643 274.4522 15.08852238 91432,6917.843,95.437,540.757,538.659,0.0
53626.0,STARLINK-4554,PAYLOAD,2024-04-22 06:25:04,15.0885494,0.0001577,53.2179,75.2306,91.7437,268.3735,0.00059344,9.173e-05,0.0,0 STARLINK-4554,1 53626U 22104AQ  24113.26740861  .00009173  00000-0  59344-3 0  9994,2 53626  53.2179  75.2306 0001577  91.7437 268.3735 15.08854940 92138,6917.835,95.437,540.791,538.609,0.0
53626.0,STARLINK-4554,PAYLOAD,2024-04-23 04:40:28,15.08838539,0.0001333,53.2173,71.0692,116.1935,243.9194,0.00028315,4.221e-05,0.0,0 STARLINK-4554,1 53626U 22104AQ  24114.19477602  .00004221  00000-0  28315-3 0  9990,2 53626  53.2173  71.0692 0001333 116.1935 243.9194 15.08838539 91581,6917.885,95.438,540.672,538.828,0.0
